{
  "norad_id": 68493,
  "name": "TRANSPORTER-16 OBJECT CF",
  "history": [
    {
      "epoch": "2026-04-13T22:17:04.140096Z",
      "apogee_km": 596.1805221770819,
      "perigee_km": 592.7374542780935,
      "latitude_deg": 2.2281162372351522e-05,
      "longitude_deg": -113.18931335521222,
      "height_km": 598.7841533350808,
      "semi_major_axis_km": 6972.595988227587,
      "eccentricity": 0.0002469,
      "inclination_deg": 97.7602,
      "raan_deg": 63.1902,
      "arg_perigee_deg": 221.8745,
      "mean_anomaly_deg": 138.2285,
      "mean_motion_rev_day": 14.91114555
    }
  ]
}